     2.100          NAVIGATION                              RINEX VERSION / TYPE
fic2rin                                 09/03/2013 00:14:08 PGM / RUN BY / DATE
                                                            END OF HEADER
15 13  9  2  2  0  0.0 -.135066453367D-03 -.181898940355D-11  .000000000000D+00
     .340000000000D+02 -.264687500000D+02  .514342853016D-08  .297871422489D+00
    -.142119824886D-05  .548077805433D-02  .794231891632D-05  .515355032921D+04
     .936000000000D+05  .298023223877D-07 -.115548398554D+01  .484287738800D-07
     .939442269736D+00  .211781250000D+03  .155830400996D+00 -.838677791439D-08
    -.569309428309D-09  .100000000000D+01  .175600000000D+04  .000000000000D+00
     .240000000000D+01  .000000000000D+00 -.977888703346D-08  .340000000000D+02
     .864060000000D+05  .400000000000D+01
16 13  9  2  2  0  0.0 -.247547868639D-03  .682121026330D-12  .000000000000D+00
     .390000000000D+02  .112187500000D+02  .418874590665D-08  .202227348929D+01
     .614672899246D-06  .706892402377D-02  .274926424026D-05  .515370068550D+04
     .936000000000D+05 -.819563865662D-07  .102154918916D+01  .651925802231D-07
     .985546456309D+00  .342093750000D+03  .138449155306D+00 -.815819696451D-08
    -.714315468392D-12  .100000000000D+01  .175600000000D+04  .000000000000D+00
     .240000000000D+01  .000000000000D+00 -.977888703346D-08  .390000000000D+02
     .864060000000D+05  .400000000000D+01
17 13  9  2  2  0  0.0 -.172117725015D-04 -.375166564481D-11  .000000000000D+00
     .240000000000D+02 -.983437500000D+02  .434982404477D-08  .106065203559D+01
    -.518932938576D-05  .846597633790D-02  .735372304916D-05  .515368034935D+04
     .936000000000D+05 -.126659870148D-06  .205757332219D+01  .111758708954D-07
     .966170561316D+00  .239843750000D+03 -.219106328907D+01 -.815319675623D-08
    -.243938732456D-09  .100000000000D+01  .175600000000D+04  .000000000000D+00
     .240000000000D+01  .000000000000D+00 -.102445483208D-07  .240000000000D+02
     .864060000000D+05  .400000000000D+01
18 13  9  2  2  0  0.0  .271900556982D-03  .193267624127D-11  .000000000000D+00
     .670000000000D+02  .122187500000D+02  .564523514670D-08  .256802472086D+01
     .456348061562D-06  .146031407639D-01  .458396971226D-05  .515362466049D+04
     .936000000000D+05  .223517417908D-07 -.217455688887D+01 -.223517417908D-06
     .926696819797D+00  .271218750000D+03 -.208073324643D+01 -.839963559282D-08
     .710743891050D-10  .100000000000D+01  .175600000000D+04  .000000000000D+00
     .240000000000D+01  .000000000000D+00 -.107102096081D-07  .670000000000D+02
     .864060000000D+05  .400000000000D+01
19 13  9  2  2  0  0.0 -.401061028242D-03 -.284217094304D-11  .000000000000D+00
     .900000000000D+02 -.101468750000D+03  .439625455022D-08  .241493601121D+00
    -.519677996635D-05  .954234087840D-02  .817142426968D-05  .515373971558D+04
     .936000000000D+05  .147148966789D-06  .210924563976D+01  .122934579849D-06
     .963413150916D+00  .223437500000D+03  .373133724186D+00 -.816462580372D-08
    -.163935399996D-09  .100000000000D+01  .175600000000D+04  .000000000000D+00
     .240000000000D+01  .000000000000D+00 -.144354999065D-07  .900000000000D+02
     .864060000000D+05  .400000000000D+01
20 13  9  2  2  0  0.0  .119625590742D-03  .250111042988D-11  .000000000000D+00
     .580000000000D+02  .202812500000D+02  .573023868744D-08  .305641119678D+01
     .102445483208D-05  .547604053281D-02  .508129596710D-05  .515367847061D+04
     .936000000000D+05  .745058059692D-07 -.222790716032D+01 -.102445483208D-06
     .927560452022D+00  .261687500000D+03  .128657120603D+01 -.857107130524D-08
     .192508018732D-09  .100000000000D+01  .175600000000D+04  .000000000000D+00
     .240000000000D+01  .000000000000D+00 -.791624188423D-08  .580000000000D+02
     .864060000000D+05  .400000000000D+01
21 13  9  2  2  0  0.0 -.316597986966D-03 -.193267624127D-11  .000000000000D+00
     .950000000000D+02  .643750000000D+01  .494056293713D-08 -.269179630789D+01
    -.130385160446D-07  .205133856507D-01  .105109065771D-04  .515364430809D+04
     .936000000000D+05  .260770320892D-06  .306189628523D+01 -.167638063431D-06
     .932236480946D+00  .157593750000D+03 -.210837605492D+01 -.789068582159D-08
     .550737226130D-09  .100000000000D+01  .175600000000D+04  .000000000000D+00
     .240000000000D+01  .000000000000D+00 -.111758708954D-07  .950000000000D+02
     .864060000000D+05  .400000000000D+01
22 13  9  2  2  0  0.0  .182777643204D-03  .159161572810D-11  .000000000000D+00
     .540000000000D+02  .125937500000D+02  .584131474278D-08  .198512628638D+01
     .597909092903D-06  .680899003055D-02  .490620732307D-05  .515364074898D+04
     .936000000000D+05 -.707805156708D-07 -.217214324374D+01 -.171363353729D-06
     .924449277309D+00  .267125000000D+03 -.203306271640D+01 -.864821737582D-08
     .133934150324D-09  .100000000000D+01  .175600000000D+04  .000000000000D+00
     .240000000000D+01  .000000000000D+00 -.172294676304D-07  .540000000000D+02
     .864060000000D+05  .400000000000D+01
23 13  9  2  2  0  0.0  .520166940987D-04 -.352429196937D-11  .000000000000D+00
     .760000000000D+02 -.193125000000D+02  .477769901034D-08 -.201730952298D+00
    -.113248825073D-05  .888561538886D-02  .890716910362D-05  .515366292191D+04
     .936000000000D+05  .838190317154D-07 -.111284561721D+01  .428408384323D-07
     .954444108428D+00  .202281250000D+03 -.283214503892D+01 -.821748514838D-08
    -.590738892360D-09  .100000000000D+01  .175600000000D+04  .000000000000D+00
     .240000000000D+01  .000000000000D+00 -.200234353542D-07  .760000000000D+02
     .864060000000D+05  .400000000000D+01
24 13  9  2  2  0  0.0 -.129560939968D-04 -.682121026330D-12  .000000000000D+00
     .460000000000D+02  .731250000000D+02  .428196407528D-08 -.883468292755D+00
     .377185642719D-05  .995502923615D-03  .962987542152D-05  .515366780663D+04
     .936000000000D+05  .447034835815D-07 -.865058760484D-01 -.298023223877D-07
     .958825176494D+00  .196468750000D+03  .236971178595D+00 -.794604527039D-08
    -.371444043564D-10  .100000000000D+01  .175600000000D+04  .000000000000D+00
     .240000000000D+01  .000000000000D+00  .325962901115D-08  .460000000000D+02
     .864060000000D+05  .400000000000D+01
26 13  9  2  2  0  0.0  .170221086591D-03  .178488335223D-10  .000000000000D+00
     .710000000000D+02 -.178437500000D+02  .433553773541D-08 -.197104652349D+00
    -.776723027229D-06  .210547674214D-01  .932626426220D-05  .515368702888D+04
     .936000000000D+05 -.195577740669D-06 -.103015332721D+01  .221654772758D-06
     .977713818825D+00  .211031250000D+03  .124983552051D+01 -.823534303509D-08
    -.496092092798D-09  .100000000000D+01  .175600000000D+04  .000000000000D+00
     .240000000000D+01  .000000000000D+00 -.558793544769D-08  .710000000000D+02
     .864060000000D+05  .400000000000D+01
28 13  9  2  2  0  0.0  .289129558951D-03  .318323145621D-11  .000000000000D+00
     .270000000000D+02  .186562500000D+02  .413552940426D-08  .184937032229D+01
     .605359673500D-06  .187136738095D-01  .256299972534D-05  .515364852333D+04
     .936000000000D+05  .838190317154D-07  .102767172368D+01 -.396743416786D-06
     .984008243299D+00  .340750000000D+03 -.176336806896D+01 -.805176395972D-08
     .125719522437D-09  .100000000000D+01  .175600000000D+04  .000000000000D+00
     .240000000000D+01  .000000000000D+00 -.107102096081D-07  .270000000000D+02
     .864060000000D+05  .400000000000D+01
29 13  9  2  2  0  0.0  .467187725008D-03  .306954461848D-11  .000000000000D+00
     .910000000000D+02 -.918750000000D+02  .424446251319D-08 -.241517575715D+01
    -.473298132420D-05  .152233266272D-02  .778213143349D-05  .515359275627D+04
     .936000000000D+05  .149011611938D-07  .206643149011D+01  .521540641785D-07
     .966841149798D+00  .230562500000D+03 -.971687624770D+00 -.798033241288D-08
    -.152149194768D-09  .100000000000D+01  .175600000000D+04  .000000000000D+00
     .340000000000D+01  .000000000000D+00 -.931322574615D-08  .910000000000D+02
     .864060000000D+05  .400000000000D+01
31 13  9  2  2  0  0.0  .324906315655D-03  .909494701773D-12  .000000000000D+00
     .590000000000D+02  .938125000000D+02  .390516266570D-08 -.172203261789D+01
     .483542680740D-05  .789963849820D-02  .936724245548D-05  .515366380501D+04
     .936000000000D+05 -.108033418655D-06 -.514255437717D-01  .316649675369D-07
     .980330979269D+00  .212937500000D+03 -.735409524096D+00 -.782139722116D-08
     .125362364703D-09  .100000000000D+01  .175600000000D+04  .000000000000D+00
     .240000000000D+01  .000000000000D+00 -.130385160446D-07  .590000000000D+02
     .864060000000D+05  .400000000000D+01
32 13  9  2  2  0  0.0 -.551488716155D-03  .227373675443D-11  .000000000000D+00
     .330000000000D+02  .481250000000D+01  .535772317068D-08 -.125784065212D+01
     .217929482460D-06  .116002600407D-01  .508129596710D-05  .515359861183D+04
     .936000000000D+05 -.931322574615D-08 -.208612487198D+01 -.167638063431D-06
     .948565903166D+00  .276000000000D+03 -.307834190118D+00 -.852142638018D-08
     .222866426138D-09  .100000000000D+01  .175600000000D+04  .000000000000D+00
     .240000000000D+01  .000000000000D+00 -.279396772385D-08  .330000000000D+02
     .864060000000D+05  .400000000000D+01
30 13  9  2  2  0  0.0  .184774398804D-05  .352429196937D-11  .000000000000D+00
     .110000000000D+03 -.229687500000D+02  .422053294500D-08  .297318946649D+01
    -.110454857349D-05  .895383313764D-02  .921264290810D-05  .515368332863D+04
     .936000000000D+05  .121071934700D-06 -.101814227531D+01 -.113621354103D-06
     .975893388437D+00  .204093750000D+03 -.179140211440D+01 -.770532095755D-08
    -.554308803472D-09  .100000000000D+01  .175600000000D+04  .000000000000D+00
     .485000000000D+01  .630000000000D+02 -.372529029846D-08  .110000000000D+03
     .867360000000D+05  .400000000000D+01
